POEM-2                  
1 56308U 23057A   26068.98468983  .00003020  00000+0  20743-3 0  9999
2 56308   9.8873 262.7521 0021373 321.9306  37.9396 14.94660083157397
STARLINK-34620          
1 64803U 25150P   26068.56205624  .00006578  00000+0  55824-3 0  9998
2 64803  70.0012 134.9355 0003773 270.7588  89.3139 14.98350238 36498
